[{"OBJECT_NAME":"SILVERSAT","OBJECT_ID":"1998-067XV","EPOCH":"2026-03-09T06:21:04.624704","MEAN_MOTION":15.72057374,"ECCENTRICITY":0.00055278,"INCLINATION":51.6252,"RA_OF_ASC_NODE":67.052,"ARG_OF_PERICENTER":73.9744,"MEAN_ANOMALY":286.1863,"EPHEMERIS_TYPE":0,"CLASSIFICATION_TYPE":"U","NORAD_CAT_ID":66909,"ELEMENT_SET_NO":999,"REV_AT_EPOCH":1512,"BSTAR":0.0015444738,"MEAN_MOTION_DOT":0.00211631,"MEAN_MOTION_DDOT":0},{"OBJECT_NAME":"STARLINK-36753","OBJECT_ID":"2026-025B","EPOCH":"2026-03-09T21:58:05.331072","MEAN_MOTION":15.75237918,"ECCENTRICITY":0.00016676,"INCLINATION":97.2841,"RA_OF_ASC_NODE":180.4754,"ARG_OF_PERICENTER":95.6352,"MEAN_ANOMALY":264.5103,"EPHEMERIS_TYPE":0,"CLASSIFICATION_TYPE":"U","NORAD_CAT_ID":67694,"ELEMENT_SET_NO":999,"REV_AT_EPOCH":598,"BSTAR":0.0015086332,"MEAN_MOTION_DOT":0.00231582,"MEAN_MOTION_DDOT":0}]
